STARLINK-2490
1 28147C 21027BH  21325.12129682  .00003325  00000-0  22272-3 0  3254
2 28147  53.0707  22.6013 0001192  70.1947 184.2409 15.06408511    13
